IRIDIUM 155             
1 43573U 18061E   21282.06141378  .00000105  00000-0  30280-4 0  9996
2 43573  86.3977  52.2029 0002067 107.3510 252.7912 14.34220068167952
IRIDIUM 154             
1 43574U 18061F   21282.11214787  .00000104  00000-0  30193-4 0  9990
2 43574  86.3981  52.2336 0001999  87.0357 273.1068 14.34220075168010
IRIDIUM 163             
1 43575U 18061G   21282.09312711  .00000095  00000-0  26925-4 0  9991
2 43575  86.3979  52.2092 0002565  89.6481 270.5009 14.34214784167984
IRIDIUM 156             
1 43576U 18061H   21282.06775957  .00000104  00000-0  30248-4 0  9998
2 43576  86.3979  52.2249 0002398  98.6023 261.5445 14.34215968167973
IRIDIUM 164             
1 43577U 18061J   21282.11849577  .00000104  00000-0  29911-4 0  9990
2 43577  86.3980  52.2180 0002145  87.5322 272.6119 14.34219802168028
IRIDIUM 159             
1 43578U 18061K   21282.08678059  .00000106  00000-0  30808-4 0  9991
2 43578  86.3979  52.2040 0002058  88.9057 271.2374 14.34221362167981
IRIDIUM 180             
1 43922U 19002A   21282.43511653  .00000053  00000-0  11935-4 0  9996
2 43922  86.4011 348.9539 0002368  71.5862 288.5591 14.34214691143686
IRIDIUM 176             
1 43923U 19002B   21282.46018614  .00000246  00000-0  35105-4 0  9998
2 43923  86.6144 348.9783 0002273  92.8631 267.2846 14.72240087147403
IRIDIUM 168             
1 43924U 19002C   21282.42878725  .00000110  00000-0  32054-4 0  9992
2 43924  86.4013 348.9855 0002088  87.3237 272.8198 14.34218928143621
IRIDIUM 173             
1 43925U 19002D   21282.20679713  .00000108  00000-0  31621-4 0  9991
2 43925  86.4009 349.0368 0002196  88.9417 271.2030 14.34219057143571
IRIDIUM 169             
1 43926U 19002E   21282.20652072  .00000141  00000-0  39585-4 0  9995
2 43926  86.4282  20.6117 0004145 192.3559 167.7538 14.38609926144094
IRIDIUM 172             
1 43927U 19002F   21282.20045079  .00000037  00000-0  60033-5 0  9996
2 43927  86.4010 349.0421 0002160  86.5109 273.6334 14.34215053143584
IRIDIUM 175             
1 43928U 19002G   21282.45404388  .00000256  00000-0  36642-4 0  9997
2 43928  86.6145 348.8037 0002795  86.0891 274.0646 14.72261537147397
IRIDIUM 171             
1 43929U 19002H   21282.18143520  .00000104  00000-0  29901-4 0  9998
2 43929  86.4019 349.1662 0002086  88.0024 272.1411 14.34217871143572
IRIDIUM 170             
1 43930U 19002J   21282.19455255  .00000261  00000-0  37455-4 0  9999
2 43930  86.6143 349.0949 0002324  89.6256 270.5227 14.72259571147374
IRIDIUM 167             
1 43931U 19002K   21282.45415670  .00000113  00000-0  33306-4 0  9993
2 43931  86.4010 348.9435 0002223  76.2975 283.8468 14.34216086143611
